COSMOS 1953             
1 19210U 88050A   16076.52789737  .00001738  00000-0  12151-3 0  9994
2 19210  82.5165 116.9049 0014229  26.7276 333.4681 15.04632780509008
SL-8 R/B                
1 19257U 88053B   16076.86415384  .00000109  00000-0  45280-4 0  9990
2 19257  74.0510 337.2424 0020717 338.4942  88.9952 14.37293562453069
COSMOS 1975             
1 19573U 88093A   16076.50585116  .00001951  00000-0  14060-3 0  9994
2 19573  82.5183  68.0881 0016285  59.9943 300.2897 15.03539659491027
SL-14 R/B               
1 19574U 88093B   16077.53631870  .00000291  00000-0  32623-4 0  9990
2 19574  82.5329 211.9680 0021758 178.1388 228.7182 14.83133554481766
SL-16 R/B               
1 19650U 88102B   16076.51691530  .00000428  00000-0  24226-3 0  9993
2 19650  70.9983 257.4297 0013565 168.9329 191.2095 14.15739794411219
INTERCOSMOS 24          
1 20261U 89080A   16076.71712901  .00000503  00000-0  14140-3 0  9995
2 20261  82.5950 306.2672 1205474  71.6514 301.1716 12.55742143208547
SL-14 R/B               
1 20262U 89080C   16077.52257389  .00000080  00000-0  21614-4 0  9995
2 20262  82.5987 348.5475 1236874 217.5822 133.2287 12.48796396204712
DELTA 1 R/B             
1 20323U 89089B   16077.54037536  .00000187  00000-0  57418-4 0  9993
2 20323  97.0664  90.9845 0073503  77.8333 283.1085 14.48100252388630
DELTA 2 R/B(1)          
1 20453U 90008B   16077.17237507  .00009376  00000-0  54596-3 0  9991
2 20453  35.6275  31.8971 0296931 331.8246  26.6679 14.81162083380359
COSMOS 2058             
1 20465U 90010A   16077.25375262  .00001213  00000-0  10262-3 0  9991
2 20465  82.4915 327.0549 0016803  37.7239 322.5157 14.97096451416964
SL-14 R/B               
1 20466U 90010B   16077.51787955  .00000246  00000-0  28494-4 0  9999
2 20466  82.5004  79.8681 0021625  41.7768 318.5092 14.81200854409898
SL-14 R/B               
1 20511U 90018B   16077.46164616  .00000254  00000-0  30489-4 0  9991
2 20511  82.5254  19.4083 0017812 165.8252 332.5605 14.79863801404515
HST                     
1 20580U 90037B   16076.53710950  .00001651  00000-0  92718-4 0  9998
2 20580  28.4696 150.5033 0002532 294.7290 161.0872 15.08243498221109
SL-16 R/B               
1 20625U 90046B   16076.99599574  .00000118  00000-0  85942-4 0  9993
2 20625  71.0000  28.6675 0012173  81.4010 342.8123 14.14590342333181
COSMOS 2084             
1 20663U 90055A   16077.14360559  .00001195  00000-0  12413-3 0  9990
2 20663  62.7938 312.9928 0115219  44.0813 316.9393 14.91089622391646
SL-6 R/B(2)             
1 20666U 90055D   16076.84782624  .00000798  00000-0  85870-4 0  9996
2 20666  62.7834 234.0953 0128445  64.0866 297.3400 14.91469191392950
SL-8 R/B                
1 20775U 90078B   16077.38406632  .00011096  00000-0  57343-3 0  9990
2 20775  82.9292  61.8403 0599201 306.7055  48.0484 14.27810758283519
SL-8 R/B                
1 21088U 91006B   16076.87986568  .00000059  00000-0  43909-4 0  9995
2 21088  82.9462   0.1805 0022940 157.1128 265.7792 13.77031767262660
OKEAN-3                 
1 21397U 91039A   16076.83590955  .00001089  00000-0  10444-3 0  9992
2 21397  82.5227 212.7209 0017238 330.4873  29.5371 14.92125576341571
COSMOS 2151             
1 21422U 91042A   16077.19240875  .00000697  00000-0  66833-4 0  9996
2 21422  82.5016 321.2502 0015031  25.9609 334.2361 14.91571805340371
SL-14 R/B               
1 21423U 91042B   16076.98598852  .00000239  00000-0  28840-4 0  9992
2 21423  82.4955  28.6394 0016470 311.5701  48.4099 14.79617195334975
ERS-1                   
1 21574U 91050A   16076.48028110  .00000173  00000-0  71687-4 0  9992
2 21574  98.4047  26.4635 0031931 242.0112 117.7843 14.37467030291837
ARIANE 40 R/B           
1 21610U 91050F   16076.80625602  .00000082  00000-0  40082-4 0  9992
2 21610  98.6681 122.8860 0002585 208.7578 282.8442 14.40708684294258
INTERCOSMOS 25          
1 21819U 91086A   16076.80266221  .00000655  00000-0  12619-3 0  9990
2 21819  82.5633 338.0022 1526466 339.9289  14.7461 12.04153782 57223
SL-14 R/B               
1 21820U 91086B   16076.87797396  .00000289  00000-0  51630-4 0  9991
2 21820  82.5638  28.1884 1578199 150.0964 220.0610 11.93120565 52240
SL-8 R/B                
1 21876U 92008B   16077.55574804  .00000114  00000-0  10284-3 0  9996
2 21876  82.9231  96.5837 0033710 227.3589 243.4238 13.75578013208601
SL-8 R/B                
1 21938U 92020B   16075.91646833  .00000067  00000-0  53474-4 0  9995
2 21938  82.9334 340.6889 0030035  32.9557  16.1177 13.75232750200004
SL-16 R/B               
1 22220U 92076B   16076.21197179 -.00000129  00000-0 -40895-4 0  9993
2 22220  70.9997 303.2440 0015057 253.2367 238.2516 14.16391102205926
SL-16 R/B               
1 22285U 92093B   16076.57225222  .00000255  00000-0  15624-3 0  9992
2 22285  71.0201  92.2319 0002192 121.8031 238.3305 14.14992607197800
COSMOS 2228             
1 22286U 92094A   16077.17344411  .00000767  00000-0  81901-4 0  9993
2 22286  82.5185  84.8990 0020226 194.0100 166.0559 14.87382329254556
SL-16 R/B               
1 22566U 93016B   16077.15945825  .00000167  00000-0  11108-3 0  9998
2 22566  71.0081 306.2341 0008315 113.9519 246.2476 14.14926737186623
COSMOS 2242             
1 22626U 93024A   16077.52942401  .00000613  00000-0  64915-4 0  9993
2 22626  82.5202 112.2456 0018850 191.6842 168.3941 14.87389636238261
SL-16 R/B               
1 22803U 93059B   16076.70606178  .00000029  00000-0  38673-4 0  9998
2 22803  70.9894 133.4336 0017264 354.7437   5.3503 14.16735086163489
ARIANE 40 R/B           
1 22830U 93061H   16077.12850803  .00000024  00000-0  26640-4 0  9990
2 22830  98.8848  75.9476 0010924 176.7094 225.6034 14.31402053172869
COSMOS 2278             
1 23087U 94023A   16076.55250025  .00000291  00000-0  17886-3 0  9997
2 23087  71.0513 235.4201 0009795 202.6198 157.4494 14.13705423129819
SL-16 R/B               
1 23088U 94023B   16077.55687684  .00000221  00000-0  13991-3 0  9990
2 23088  70.9998 160.4491 0001321  55.0719 305.0527 14.14635408130961
SL-16 R/B               
1 23343U 94074B   16077.51221414  .00000109  00000-0  23318-4 0  9991
2 23343  98.2022 102.6118 0008277  95.8378  29.6332 14.76642632149430
SL-16 R/B               
1 23405U 94077B   16077.17030680  .00000113  00000-0  83015-4 0  9993
2 23405  70.9809  96.2647 0004731 282.1856  77.8736 14.15175478100855
ERS-2                   
1 23560U 95021A   16076.42678453  .00007975  00000-0  39134-3 0  9993
2 23560  98.5091   3.5610 0005323  65.6436 294.5350 15.18417271105863
ARIANE 40+ R/B          
1 23561U 95021B   16077.54737914  .00000161  00000-0  68942-4 0  9996
2 23561  98.7638  62.9423 0007186 161.4192 305.9966 14.37718953 95631
SL-16 R/B               
1 23705U 95058B   16077.09970605 -.00000294  00000-0 -12693-3 0  9992
2 23705  71.0203 268.0111 0014941 273.9856  85.9559 14.15084187 52524
SL-16 R/B               
1 24298U 96051B   16076.08904086  .00000017  00000-0  35555-4 0  9996
2 24298  70.8346 307.7404 0015583 155.8891 204.2961 14.12390043  7131
ORBVIEW 2 (SEASTAR)     
1 24883U 97037A   16077.44204494  .00000149  00000-0  69869-4 0  9999
2 24883  98.5128 186.8678 0002822  43.8345 316.3063 14.33297379986479
SL-16 R/B               
1 25400U 98043G   16077.30823796  .00000042  00000-0  35517-4 0  9995
2 25400  98.4272  35.7599 0009630 186.5215 173.5842 14.25374199919980
SL-16 R/B               
1 25407U 98045B   16076.80182526  .00000027  00000-0  38085-4 0  9993
2 25407  71.0105 282.5946 0008301 199.8827 160.1974 14.15743005911443
ISS (ZARYA)             
1 25544U 98067A   16077.61200961  .00012004  00000-0  18803-3 0  9996
2 25544  51.6438 154.7419 0001609 313.7910 150.5559 15.54167409990730
SL-8 R/B                
1 25723U 99022C   16077.15489413  .00018074  00000-0  35807-3 0  9993
2 25723  48.4185  71.7349 0012961 357.9170  52.7910 15.46933540935565
CZ-4B R/B               
1 25732U 99025C   16077.09890161  .00000024  00000-0  34193-4 0  9999
2 25732  98.9677  67.8791 0036643 313.7278  87.7029 14.17602611871871
OKEAN-O                 
1 25860U 99039A   16077.01509820  .00000394  00000-0  64416-4 0  9998
2 25860  98.1340  51.1661 0001576 108.5462 251.5919 14.76315219896377
SL-16 R/B               
1 25861U 99039B   16076.96512976  .00000195  00000-0  34084-4 0  9995
2 25861  98.0427  41.0624 0016954 112.8132 288.2592 14.78290326898221
TERRA                   
1 25994U 99068A   16077.41509928  .00015903  00000-0  35306-2 0  9997
2 25994  98.2107 152.9758 0001289 112.3715 247.7875 14.57121914864154
SL-14 R/B               
1 26874U 01032B   16077.48553768  .00040180  00000-0  25064-3 0  9993
2 26874  82.4631  21.9874 0007864 170.4091 189.7326 15.76672112821174
ENVISAT                 
1 27386U 02009A   16077.40697763  .00000005  00000-0  15617-4 0  9999
2 27386  98.2949 134.0604 0000984  73.9289 286.2011 14.37859131735430
IDEFIX & ARIANE 42P R/B 
1 27422U 02021B   16077.15277292  .00000031  00000-0  28160-4 0  9993
2 27422  98.2362  96.7349 0013078 147.0510 213.1490 14.29235469721391
AQUA                    
1 27424U 02022A   16077.18160823  .00000318  00000-0  80722-4 0  9990
2 27424  98.2084  19.1426 0001722  80.3169  31.9756 14.57084541737720
CZ-4B R/B               
1 27432U 02024C   16077.57102206  .00000019  00000-0  33125-4 0  9998
2 27432  98.9257  44.1692 0049516 244.9993 228.3321 14.14008728714267
MIDORI II (ADEOS-II)    
1 27597U 02056A   16077.52629278  .00000152  00000-0  79124-4 0  9990
2 27597  98.3141  62.0725 0000663 139.3019 220.8213 14.27192903690282
H-2A R/B                
1 27601U 02056E   16076.30232653  .00000142  00000-0  67274-4 0  9990
2 27601  98.4254 152.5638 0071742 211.2372 190.5525 14.31696702692293
CZ-4B R/B               
1 28059U 03049C   16077.57415631  .00000038  00000-0  21197-4 0  9998
2 28059  98.6262 306.7116 0049831 197.5900 217.4520 14.52430855657397
CZ-2C R/B               
1 28222U 04012C   16076.51560147  .00003688  00000-0  23596-3 0  9995
2 28222  97.4636  37.8395 0048355 316.7759 162.6431 15.08244980651603
